327P/VanNess,e,36.2509,173.9846,185.0282,3.563245,0.1465331,0.56330422,7.2699,10/22.0/2022,2000,g 16.0,4.0
# From MPC109148
328P/LONEOS-Tucker,e,17.6725,341.6296,30.5627,4.191469,0.1148563,0.55269187,285.9310,10/22.0/2022,2000,g 14.5,4.0
# From MPC101101
329P/LINEAR-Catalina,e,21.6995,87.6575,343.5400,5.188694,0.0833906,0.67804092,209.8959,10/22.0/2022,2000,g 13.5,4.0
# From MPEC 2022-K19
330P/Catalina,e,15.7064,293.0846,188.8651,6.622851,0.0578278,0.54871195,130.0226,10/22.0/2022,2000,g 12.0,4.0
# From MPEC 2022-C56
331P/Gibbs,e,9.7390,216.7533,184.4391,3.005298,0.1891789,0.04123391,141.6831,10/22.0/2022,2000,g 12.0,4.0
# From MPEC 2016-K18
332P/Ikeya-Murakami,e,9.3801,3.7857,152.3090,3.087933,0.1816361,0.48932251,78.0419,10/22.0/2022,2000,g 18.0,4.0
# From MPEC 2016-EI8
332P-B/Ikeya-Murakami,e,9.3805,3.8028,152.3711,3.082329,0.1821317,0.48970701,359.9699,03/17.0/2016,2000,g 19.0,4.0
# From MPEC 2016-K18
332P-C/Ikeya-Murakami,e,9.3791,3.7861,152.3002,3.087899,0.1816391,0.48932799,78.0574,10/22.0/2022,2000,g 16.5,4.0
# From MPEC 2016-ED0
332P-D/Ikeya-Murakami,e,9.3761,3.7923,152.4393,3.081138,0.1822373,0.48977814,359.9486,03/17.0/2016,2000,g 19.0,4.0
# From MPEC 2016-ED0
332P-E/Ikeya-Murakami,e,9.3774,3.8228,152.2825,3.079877,0.1823493,0.48922008,359.9889,03/17.0/2016,2000,g 21.0,4.0
# From MPEC 2016-ED0
332P-F/Ikeya-Murakami,e,9.5293,3.4757,152.8203,3.163214,0.1751908,0.49918860,359.8501,03/17.0/2016,2000,g 21.0,4.0
# From MPEC 2016-ED0
332P-G/Ikeya-Murakami,e,9.2523,3.6955,154.4000,3.050519,0.1849880,0.49200362,359.9006,03/19.0/2016,2000,g 19.0,4.0
# From MPC100285
332P-H/Ikeya-Murakami,e,9.3797,3.7858,152.3009,3.088083,0.1816229,0.48936329,77.9853,10/22.0/2022,2000,g 19.0,4.0
# From MPEC 2016-ED0
332P-I/Ikeya-Murakami,e,9.3791,3.8048,152.3297,3.081767,0.1821815,0.48955490,359.9360,03/17.0/2016,2000,g 20.5,2.0
# From MPEC 2016-EI8
332P-J/Ikeya-Murakami,e,9.4296,3.6729,152.7712,3.115165,0.1792596,0.49429435,359.8613,03/17.0/2016,2000,g 20.5,2.0
# From MPEC 2020-L06
333P/LINEAR,e,132.0036,115.6551,25.9842,4.221177,0.1136459,0.73648429,272.5856,10/22.0/2022,2000,g 15.0,4.0
# From MPC115888
334P/NEAT,e,20.3991,90.5953,90.1018,6.836733,0.0551355,0.35057622,108.3934,10/22.0/2022,2000,g 10.5,4.0
# From MPEC 2021-U31
335P/Gibbs,e,7.2932,330.8472,162.3075,3.578313,0.1456084,0.54619985,10.3367,10/22.0/2022,2000,g 17.0,4.0
# From MPC105244
336P/McNaught,e,17.8276,298.2631,308.7099,5.035726,0.0872190,0.44405979,182.3142,10/22.0/2022,2000,g 13.5,4.0
# From MPEC 2022-QD9
337P/WISE,e,15.3708,106.0597,161.0449,3.286003,0.1654634,0.49662282,18.6676,10/22.0/2022,2000,g 17.0,4.0
# From MPEC 2022-K19
338P/McNaught,e,25.3865,9.7999,4.4798,3.894213,0.1282551,0.41207742,276.5325,10/22.0/2022,2000,g 12.0,4.0
# From MPC101101
339P/Gibbs,e,5.7332,172.7231,27.4748,3.699304,0.1385237,0.63554556,316.6451,10/22.0/2022,2000,g 17.0,4.0
# From MPC133426
340P/Boattini,e,2.0781,291.6697,35.9942,4.250214,0.1124833,0.28078866,242.8529,10/22.0/2022,2000,g 14.3,4.0
# From MPEC 2022-K19
341P/Gibbs,e,3.7972,29.9679,312.2544,4.290934,0.1108859,0.41575040,258.7438,10/22.0/2022,2000,g 12.5,4.0
# From MPC101101
342P/SOHO,e,11.6669,27.7122,73.2542,3.041452,0.1858158,0.98277897,0.0000,10/19.2847/2021,2000,g  9.0,4.0
# From MPEC 2022-K19
343P/NEAT-LONEOS,e,5.5899,257.1231,137.4634,5.458134,0.0772926,0.58507829,161.5668,10/22.0/2022,2000,g 14.0,4.0
# From MPC109148
344P/Read,e,3.4943,273.1263,140.4291,4.861642,0.0919453,0.42306762,200.3243,10/22.0/2022,2000,g 13.0,4.0
# From MPEC 2022-K19
345P/LINEAR,e,2.7275,154.5147,196.5582,4.035214,0.1215918,0.22150221,277.5590,10/22.0/2022,2000,g 12.0,4.0
# From MPEC 2022-K19
346P/Catalina,e,22.2003,102.4536,335.9572,4.473552,0.1041658,0.50312690,216.2706,10/22.0/2022,2000,g 14.0,4.0
# From MPEC 2022-K19
347P/PANSTARRS,e,11.7540,261.0210,98.4266,3.604246,0.1440397,0.38610608,320.9550,10/22.0/2022,2000,g 15.0,4.0
# From MPEC 2022-ED3
348P/PANSTARRS,e,17.7385,312.9409,135.6751,3.151415,0.1761756,0.30702014,44.2959,10/22.0/2022,2000,g 14.0,4.0
# From MPEC 2022-K19
349P/Lemmon,e,5.4903,331.7523,255.9178,3.575843,0.1457594,0.29843030,274.9446,10/22.0/2022,2000,g 14.0,4.0
# From MPC111775
350P/McNaught,e,7.3632,65.2952,139.6952,4.085241,0.1193652,0.09314751,211.7451,10/22.0/2022,2000,g 14.0,4.0
# From MPC105244
351P/Wiegert-PANSTARRS,e,12.7799,283.4277,352.6788,4.438987,0.1053849,0.29519448,266.5684,10/22.0/2022,2000,g 12.5,4.0
# From MPC110086
352P/Skiff,e,21.0129,28.0066,309.3351,6.644346,0.0575474,0.61791806,112.0493,10/22.0/2022,2000,g 11.5,4.0
# From MPEC 2020-AA5
353P/McNaught,e,28.4130,121.5334,230.4613,4.170680,0.1157161,0.47038282,204.0811,10/22.0/2022,2000,g 14.5,4.0
# From MPC105545
354P/LINEAR,e,5.2538,320.1295,132.7148,2.290459,0.2843284,0.12531312,258.5118,10/22.0/2022,2000,g 15.5,4.0
# From MPEC 2020-AA5
355P/LINEAR-NEAT,e,11.0463,51.4320,336.3019,3.469817,0.1524910,0.50781960,279.5601,10/22.0/2022,2000,g 15.5,2.0
# From MPEC 2022-F14
356P/WISE,e,9.6379,160.7965,226.0357,4.157182,0.1162801,0.35582304,205.5168,10/22.0/2022,2000,g 14.0,4.0
# From MPC114609
357P/Hill,e,6.3158,44.5581,1.3980,4.458155,0.1047059,0.43567189,168.1037,10/22.0/2022,2000,g 15.5,4.0
# From MPEC 2020-HN5
358P/PANSTARRS,e,11.0604,85.7027,299.7789,3.146588,0.1765811,0.23893958,291.9828,10/22.0/2022,2000,g 18.0,4.0
# From MPC110086
359P/LONEOS,e,10.2663,149.7535,200.2569,4.640077,0.0986089,0.32417078,185.9525,10/22.0/2022,2000,g 13.5,4.0
# From MPC108599
360P/WISE,e,24.1120,2.1921,354.1892,3.700241,0.1384711,0.49929180,261.3315,10/22.0/2022,2000,g 19.5,6.0
# From MPC114609
361P/Spacewatch,e,13.9022,203.2570,219.0015,4.935737,0.0898827,0.43892145,141.2589,10/22.0/2022,2000,g 12.0,4.0
# From MPEC 2017-V13
362P/,e,15.5568,192.5458,53.6217,3.971503,0.1245294,0.27879299,280.5951,10/22.0/2022,2000,g 12.9,2.0
# From MPC114609
363P/Lemmon,e,5.4064,146.8821,340.9785,3.566246,0.1463481,0.52021141,249.7818,10/22.0/2022,2000,g 17.5,4.0
# From MPEC 2022-K19
364P/PANSTARRS,e,12.1349,46.1577,212.0135,2.880147,0.2016425,0.72182046,318.8619,10/22.0/2022,2000,g 17.0,2.0
# From MPC111775
365P/PANSTARRS,e,9.8374,86.3587,67.6227,3.160140,0.1754464,0.58140038,298.1920,10/22.0/2022,2000,g 17.0,4.0
# From MPC114610
366P/Spacewatch,e,8.8571,70.7630,153.0549,3.496799,0.1507294,0.34803114,234.5282,10/22.0/2022,2000,g 15.0,4.0
# From MPC112395
367P/Catalina,e,8.4597,58.7195,172.8150,3.507487,0.1500410,0.27976772,237.9821,10/22.0/2022,2000,g 17.5,2.0
# From MPC114610
368P/NEAT,e,15.4817,257.8623,118.8981,5.529156,0.0758081,0.62674328,113.5206,10/22.0/2022,2000,g 14.0,4.0
# From MPC114610
369P/Hill,e,10.3229,47.2909,13.1541,4.381874,0.1074519,0.55527251,157.6100,10/22.0/2022,2000,g 15.0,4.0
# From MPEC 2021-F20
370P/NEAT,e,19.4222,55.0748,356.6982,6.434459,0.0603860,0.61526189,96.2745,10/22.0/2022,2000,g 13.0,4.0
# From MPC114610
371P/LINEAR-Skiff,e,17.3838,67.2500,308.5429,4.180664,0.1153018,0.47708095,170.2905,10/22.0/2022,2000,g 16.0,4.0
# From MPEC 2020-K19
372P/McNaught,e,9.5076,325.8178,27.5898,4.507545,0.1029897,0.15257155,150.2534,10/22.0/2022,2000,g 13.5,4.0
# From MPEC 2021-F20
373P/Rinner,e,13.7688,231.9596,221.0121,3.801198,0.1329914,0.39276903,171.8318,10/22.0/2022,2000,g 14.5,4.0
# From MPC114610
374P/Larson,e,10.7669,7.9151,51.4469,4.971691,0.0889094,0.46326417,122.6378,10/22.0/2022,2000,g 14.0,4.0
# From MPEC 2021-F20
375P/Hill,e,17.3615,359.9494,119.3749,5.550742,0.0753664,0.65884531,105.5986,10/22.0/2022,2000,g 16.0,4.0
# From MPEC 2022-K19
376P/LONEOS,e,1.1742,313.8497,284.7818,5.774642,0.0710259,0.51628471,79.9267,10/22.0/2022,2000,g 12.5,4.0
# From MPEC 2022-N37
377P/Scotti,e,9.0242,226.0666,355.0358,6.704825,0.0567705,0.25151770,47.2507,10/22.0/2022,2000,g  9.5,4.0
# From MPEC 2022-UE6
378P/McNaught,e,19.0550,94.1186,193.6568,6.333348,0.0618378,0.46775896,45.4718,10/22.0/2022,2000,g 12.0,4.0
# From MPC115889
379P/Spacewatch,e,12.4527,183.8398,30.5666,3.509109,0.1499370,0.34354228,176.3629,10/22.0/2022,2000,g 15.0,4.0
# From MPEC 2022-K19
380P/PANSTARRS,e,8.1462,131.8321,86.3765,4.426905,0.1058166,0.34180014,131.7514,10/22.0/2022,2000,g 14.6,4.0
# From MPEC 2021-J28
381P/LINEAR-Spacewatch,e,28.3786,173.7587,173.2752,7.135039,0.0517142,0.68185391,57.9618,10/22.0/2022,2000,g 17.5,2.0
# From MPEC 2022-UE6
382P/Larson,e,8.4555,173.7331,167.0371,6.258008,0.0629579,0.29657890,17.6321,10/22.0/2022,2000,g  8.0,4.0
# From MPEC 2022-OB6
383P/Christensen,e,12.3253,207.8255,133.7692,3.546752,0.1475563,0.59945528,161.0499,10/22.0/2022,2000,g 18.0,4.0
# From MPEC 2022-OB6
384P/Kowalski,e,7.2842,354.2279,37.6321,2.900087,0.1995664,0.61612587,220.6779,10/22.0/2022,2000,g 19.5,4.0
# From MPEC 2021-F20
385P/Hill,e,16.8321,357.0604,44.3365,4.288468,0.1109816,0.40197978,125.6830,10/22.0/2022,2000,g 13.0,4.0
# From MPEC 2021-L04
386P/PANSTARRS,e,15.2309,134.9380,353.1274,4.053290,0.1207793,0.41632790,95.8937,10/22.0/2022,2000,g 14.5,4.0
# From MPEC 2021-J28
387P/Boattini,e,8.9284,259.2610,162.7920,4.797060,0.0938083,0.73666820,107.0548,10/22.0/2022,2000,g 15.0,4.0
# From MPEC 2021-S45
388P/Gibbs,e,23.8862,37.0458,42.3002,5.241383,0.0821363,0.61857688,97.4084,10/22.0/2022,2000,g 13.0,4.0
# From MPEC 2022-OB6
389P/Siding Spring,e,160.0832,218.8749,249.3869,5.632755,0.0737264,0.70438296,75.7569,10/22.0/2022,2000,g 16.0,4.0
# From MPEC 2022-OB6
390P/Gibbs,e,18.5591,152.2724,232.3839,5.809134,0.0703942,0.70742193,66.4084,10/22.0/2022,2000,g 12.0,4.0
# From MPEC 2021-F20
391P/Kowalski,e,21.2692,124.7384,187.3034,4.683469,0.0972417,0.11991845,162.8285,10/22.0/2022,2000,g  8.0,4.0
# From MPEC 2021-J28
392P/LINEAR,e,4.9320,24.8867,71.8830,6.141066,0.0647647,0.68308991,60.4915,10/22.0/2022,2000,g 14.5,4.0
# From MPEC 2021-BE3
393P/Spacewatch-Hill,e,16.7876,36.3957,328.7410,4.791700,0.0939658,0.12063091,102.2802,10/22.0/2022,2000,g 11.0,4.0
# From MPEC 2020-KB7
394P/PANSTARRS,e,8.5295,98.1256,54.4725,4.330550,0.1093678,0.36743160,115.6405,10/22.0/2022,2000,g 16.0,2.4
# From MPEC 2022-UE6
